start=new Date('2021-09-23T00:00:00.000Z').valueOf();
sats=[{"OBJECT_TYPE":"PAYLOAD","TIME_SYSTEM":"UTC","MEAN_MOTION_DDOT":"0.0000000000000","NORAD_CAT_ID":"47817","TLE_LINE2":"2 47817  53.0558   4.5952 0001085 105.4936 254.6173 15.06391699 31058","OBJECT_ID":"2021-018AG","ARG_OF_PERICENTER":"105.4936","INCLINATION":"53.0558","TLE_LINE1":"1 47817U 21018AG  21265.66308089  .00001431  00000-0  11497-3 0  9999","REF_FRAME":"TEME","SITE":"AFETR","MEAN_ELEMENT_THEORY":"SGP4","OBJECT_NAME":"STARLINK-2400","CENTER_NAME":"EARTH","MEAN_MOTION_DOT":"0.00001431","REV_AT_EPOCH":"3105","ELEMENT_SET_NO":"999","GP_ID":"185269157","ECCENTRICITY":"0.00010850","SEMIMAJOR_AXIS":"6925.374","RCS_SIZE":"LARGE","APOAPSIS":"547.990","PERIOD":"95.593","EPHEMERIS_TYPE":"0","MEAN_ANOMALY":"254.6173","RA_OF_ASC_NODE":"4.5952","FILE":"3123736","PERIAPSIS":"546.488","EPOCH":"2021-09-22T15:54:50.188896","MEAN_MOTION":"15.06391699","DECAY_DATE":null,"COUNTRY_CODE":"US","LAUNCH_DATE":"2021-03-11","CLASSIFICATION_TYPE":"U","BSTAR":"0.00011497000000"},{"REF_FRAME":"TEME","SITE":"AFETR","TLE_LINE1":"1 47818U 21018AH  21265.69027450  .00001040  00000-0  88707-4 0  9998","INCLINATION":"53.0569","ARG_OF_PERICENTER":"100.4164","MEAN_MOTION_DOT":"0.00001040","REV_AT_EPOCH":"3099","CENTER_NAME":"EARTH","OBJECT_NAME":"STARLINK-2401","MEAN_ELEMENT_THEORY":"SGP4","TIME_SYSTEM":"UTC","MEAN_MOTION_DDOT":"0.0000000000000","OBJECT_TYPE":"PAYLOAD","OBJECT_ID":"2021-018AH","NORAD_CAT_ID":"47818","TLE_LINE2":"2 47818  53.0569   9.4756 0001294 100.4164 259.6971 15.06381615 30997","RA_OF_ASC_NODE":"9.4756","FILE":"3123736","LAUNCH_DATE":"2021-03-11","BSTAR":"0.00008870700000","CLASSIFICATION_TYPE":"U","EPOCH":"2021-09-22T16:33:59.716800","PERIAPSIS":"546.374","MEAN_MOTION":"15.06381615","DECAY_DATE":null,"COUNTRY_CODE":"US","SEMIMAJOR_AXIS":"6925.405","ELEMENT_SET_NO":"999","GP_ID":"185269385","ECCENTRICITY":"0.00012940","PERIOD":"95.593","MEAN_ANOMALY":"259.6971","EPHEMERIS_TYPE":"0","APOAPSIS":"548.166","RCS_SIZE":"LARGE"},{"SEMIMAJOR_AXIS":"6925.330","GP_ID":"185267657","ECCENTRICITY":"0.00010540","ELEMENT_SET_NO":"999","EPHEMERIS_TYPE":"0","MEAN_ANOMALY":"255.1760","PERIOD":"95.592","APOAPSIS":"547.925","RCS_SIZE":"MEDIUM","FILE":"3123736","RA_OF_ASC_NODE":"4.5847","CLASSIFICATION_TYPE":"U","BSTAR":"0.00015739000000","LAUNCH_DATE":"2021-03-11","MEAN_MOTION":"15.06406170","DECAY_DATE":null,"COUNTRY_CODE":"US","PERIAPSIS":"546.465","EPOCH":"2021-09-22T16:00:06.996096","MEAN_MOTION_DDOT":"0.0000000000000","TIME_SYSTEM":"UTC","OBJECT_TYPE":"PAYLOAD","OBJECT_ID":"2021-018AJ","TLE_LINE2":"2 47819  53.0585   4.5847 0001054 104.9346 255.1760 15.06406170 31125","NORAD_CAT_ID":"47819","TLE_LINE1":"1 47819U 21018AJ  21265.66674764  .00002064  00000-0  15739-3 0  9993","SITE":"AFETR","REF_FRAME":"TEME","ARG_OF_PERICENTER":"104.9346","INCLINATION":"53.0585","CENTER_NAME":"EARTH","MEAN_MOTION_DOT":"0.00002064","REV_AT_EPOCH":"3112","MEAN_ELEMENT_THEORY":"SGP4","OBJECT_NAME":"STARLINK-2402"},{"SEMIMAJOR_AXIS":"6925.353","ECCENTRICITY":"0.00013920","GP_ID":"185268406","ELEMENT_SET_NO":"999","EPHEMERIS_TYPE":"0","MEAN_ANOMALY":"266.2326","PERIOD":"95.592","APOAPSIS":"548.182","RCS_SIZE":"LARGE","RA_OF_ASC_NODE":"14.3737","FILE":"3123736","CLASSIFICATION_TYPE":"U","BSTAR":"0.00002336100000","LAUNCH_DATE":"2021-03-11","DECAY_DATE":null,"MEAN_MOTION":"15.06398673","COUNTRY_CODE":"US","PERIAPSIS":"546.254","EPOCH":"2021-09-22T17:07:47.892864","MEAN_MOTION_DDOT":"0.0000000000000","TIME_SYSTEM":"UTC","OBJECT_TYPE":"PAYLOAD","OBJECT_ID":"2021-018AK","TLE_LINE2":"2 47820  53.0575  14.3737 0001392  93.8822 266.2326 15.06398673 30985","NORAD_CAT_ID":"47820","TLE_LINE1":"1 47820U 21018AK  21265.71374876  .00000067  00000-0  23361-4 0  9994","SITE":"AFETR","REF_FRAME":"TEME","ARG_OF_PERICENTER":"93.8822","INCLINATION":"53.0575","CENTER_NAME":"EARTH","MEAN_MOTION_DOT":"0.00000067","REV_AT_EPOCH":"3098","MEAN_ELEMENT_THEORY":"SGP4","OBJECT_NAME":"STARLINK-2403"},{"PERIOD":"95.592","EPHEMERIS_TYPE":"0","MEAN_ANOMALY":"261.9358","RCS_SIZE":"LARGE","APOAPSIS":"547.926","SEMIMAJOR_AXIS":"6925.348","ELEMENT_SET_NO":"999","GP_ID":"185268658","ECCENTRICITY":"0.00010290","LAUNCH_DATE":"2021-03-11","CLASSIFICATION_TYPE":"U","BSTAR":"0.00001020100000","PERIAPSIS":"546.500","EPOCH":"2021-09-22T16:35:55.351104","DECAY_DATE":null,"COUNTRY_CODE":"US","MEAN_MOTION":"15.06400147","FILE":"3123736","RA_OF_ASC_NODE":"4.4757","OBJECT_ID":"2021-018AL","TLE_LINE2":"2 47821  53.0576   4.4757 0001029  98.1748 261.9358 15.06400147 31068","NORAD_CAT_ID":"47821","TIME_SYSTEM":"UTC","MEAN_MOTION_DDOT":"0.0000000000000","OBJECT_TYPE":"PAYLOAD","CENTER_NAME":"EARTH","REV_AT_EPOCH":"3106","MEAN_MOTION_DOT":"-0.00000129","MEAN_ELEMENT_THEORY":"SGP4","OBJECT_NAME":"STARLINK-2406","TLE_LINE1":"1 47821U 21018AL  21265.69161286 -.00000129  00000-0  10201-4 0  9990","REF_FRAME":"TEME","SITE":"AFETR","ARG_OF_PERICENTER":"98.1748","INCLINATION":"53.0576"},{"INCLINATION":"53.0567","ARG_OF_PERICENTER":"99.0489","SITE":"AFETR","REF_FRAME":"TEME","TLE_LINE1":"1 47822U 21018AM  21265.70269643  .00001344  00000-0  10911-3 0  9995","OBJECT_NAME":"STARLINK-2407","MEAN_ELEMENT_THEORY":"SGP4","REV_AT_EPOCH":"3093","MEAN_MOTION_DOT":"0.00001344","CENTER_NAME":"EARTH","OBJECT_TYPE":"PAYLOAD","MEAN_MOTION_DDOT":"0.0000000000000","TIME_SYSTEM":"UTC","TLE_LINE2":"2 47822  53.0567  14.4158 0001256  99.0489 261.0642 15.06392388 30938","NORAD_CAT_ID":"47822","OBJECT_ID":"2021-018AM","FILE":"3123736","RA_OF_ASC_NODE":"14.4158","COUNTRY_CODE":"US","DECAY_DATE":null,"MEAN_MOTION":"15.06392388","EPOCH":"2021-09-22T16:51:52.971552","PERIAPSIS":"546.367","BSTAR":"0.00010911000000","CLASSIFICATION_TYPE":"U","LAUNCH_DATE":"2021-03-11","GP_ID":"185268886","ECCENTRICITY":"0.00012560","ELEMENT_SET_NO":"999","SEMIMAJOR_AXIS":"6925.372","RCS_SIZE":"LARGE","APOAPSIS":"548.107","MEAN_ANOMALY":"261.0642","EPHEMERIS_TYPE":"0","PERIOD":"95.593"},{"OBJECT_TYPE":"PAYLOAD","MEAN_MOTION_DDOT":"0.0000000000000","TIME_SYSTEM":"UTC","TLE_LINE2":"2 47823  53.0572   4.9471 0001315  90.7319 269.3820 15.06387455 31055","NORAD_CAT_ID":"47823","OBJECT_ID":"2021-018AN","ARG_OF_PERICENTER":"90.7319","INCLINATION":"53.0572","TLE_LINE1":"1 47823U 21018AN  21265.58567925  .00001577  00000-0  12478-3 0  9994","REF_FRAME":"TEME","SITE":"AFETR","MEAN_ELEMENT_THEORY":"SGP4","OBJECT_NAME":"STARLINK-2408","CENTER_NAME":"EARTH","REV_AT_EPOCH":"3105","MEAN_MOTION_DOT":"0.00001577","ECCENTRICITY":"0.00013150","GP_ID":"185239463","ELEMENT_SET_NO":"999","SEMIMAJOR_AXIS":"6925.387","RCS_SIZE":"LARGE","APOAPSIS":"548.163","EPHEMERIS_TYPE":"0","MEAN_ANOMALY":"269.3820","PERIOD":"95.593","FILE":"3123417","RA_OF_ASC_NODE":"4.9471","MEAN_MOTION":"15.06387455","DECAY_DATE":null,"COUNTRY_CODE":"US","PERIAPSIS":"546.341","EPOCH":"2021-09-22T14:03:22.687200","CLASSIFICATION_TYPE":"U","BSTAR":"0.00012478000000","LAUNCH_DATE":"2021-03-11"},{"CLASSIFICATION_TYPE":"U","BSTAR":"0.00008319700000","LAUNCH_DATE":"2021-03-11","DECAY_DATE":null,"COUNTRY_CODE":"US","MEAN_MOTION":"15.06389047","PERIAPSIS":"546.474","EPOCH":"2021-09-22T15:22:59.482272","FILE":"3123736","RA_OF_ASC_NODE":"4.7160","EPHEMERIS_TYPE":"0","MEAN_ANOMALY":"273.2734","PERIOD":"95.593","RCS_SIZE":"LARGE","APOAPSIS":"548.021","SEMIMAJOR_AXIS":"6925.382","GP_ID":"185267907","ECCENTRICITY":"0.00011170","ELEMENT_SET_NO":"999","CENTER_NAME":"EARTH","REV_AT_EPOCH":"3105","MEAN_MOTION_DOT":"0.00000958","MEAN_ELEMENT_THEORY":"SGP4","OBJECT_NAME":"STARLINK-2409","TLE_LINE1":"1 47824U 21018AP  21265.64096623  .00000958  00000-0  83197-4 0  9993","SITE":"AFETR","REF_FRAME":"TEME","ARG_OF_PERICENTER":"86.8383","INCLINATION":"53.0556","OBJECT_ID":"2021-018AP","TLE_LINE2":"2 47824  53.0556   4.7160 0001117  86.8383 273.2734 15.06389047 31055","NORAD_CAT_ID":"47824","MEAN_MOTION_DDOT":"0.0000000000000","TIME_SYSTEM":"UTC","OBJECT_TYPE":"PAYLOAD"},{"OBJECT_TYPE":"PAYLOAD","MEAN_MOTION_DDOT":"0.0000000000000","TIME_SYSTEM":"UTC","NORAD_CAT_ID":"47825","TLE_LINE2":"2 47825  53.0555   4.6046 0001192 109.3999 250.7119 15.06403956 31068","OBJECT_ID":"2021-018AQ","ARG_OF_PERICENTER":"109.3999","INCLINATION":"53.0555","TLE_LINE1":"1 47825U 21018AQ  21265.65938070  .00002184  00000-0  16547-3 0  9993","SITE":"AFETR","REF_FRAME":"TEME","MEAN_ELEMENT_THEORY":"SGP4","OBJECT_NAME":"STARLINK-2410","CENTER_NAME":"EARTH","MEAN_MOTION_DOT":"0.00002184","REV_AT_EPOCH":"3106","ECCENTRICITY":"0.00011920","GP_ID":"185269158","ELEMENT_SET_NO":"999","SEMIMAJOR_AXIS":"6925.336","RCS_SIZE":"LARGE","APOAPSIS":"548.027","EPHEMERIS_TYPE":"0","MEAN_ANOMALY":"250.7119","PERIOD":"95.592","FILE":"3123736","RA_OF_ASC_NODE":"4.6046","DECAY_DATE":null,"MEAN_MOTION":"15.06403956","COUNTRY_CODE":"US","PERIAPSIS":"546.376","EPOCH":"2021-09-22T15:49:30.492480","CLASSIFICATION_TYPE":"U","BSTAR":"0.00016547000000","LAUNCH_DATE":"2021-03-11"},{"OBJECT_ID":"2021-018AR","TLE_LINE2":"2 47826  53.0571   4.6345 0001287  85.2296 274.8839 15.06387503 31061","NORAD_CAT_ID":"47826","MEAN_MOTION_DDOT":"0.0000000000000","TIME_SYSTEM":"UTC","OBJECT_TYPE":"PAYLOAD","CENTER_NAME":"EARTH","MEAN_MOTION_DOT":"0.00001298","REV_AT_EPOCH":"3106","MEAN_ELEMENT_THEORY":"SGP4","OBJECT_NAME":"STARLINK-2411","TLE_LINE1":"1 47826U 21018AR  21265.65571294  .00001298  00000-0  10605-3 0  9999","REF_FRAME":"TEME","SITE":"AFETR","ARG_OF_PERICENTER":"85.2296","INCLINATION":"53.0571","EPHEMERIS_TYPE":"0","MEAN_ANOMALY":"274.8839","PERIOD":"95.593","RCS_SIZE":"LARGE","APOAPSIS":"548.143","SEMIMAJOR_AXIS":"6925.387","GP_ID":"185269386","ECCENTRICITY":"0.00012870","ELEMENT_SET_NO":"999","CLASSIFICATION_TYPE":"U","BSTAR":"0.00010605000000","LAUNCH_DATE":"2021-03-11","COUNTRY_CODE":"US","DECAY_DATE":null,"MEAN_MOTION":"15.06387503","PERIAPSIS":"546.361","EPOCH":"2021-09-22T15:44:13.598016","FILE":"3123736","RA_OF_ASC_NODE":"4.6345"}];
